{"type":"FeatureCollection","generator":"overpass-turbo","copyright":"The data included in this document is from www.openstreetmap.org. The data is made available under ODbL.","timestamp":"2024-02-12T10:22:46Z","features":[{"type":"Feature","properties":{"@id":"node/30088453","amenity":"police","name":"Karen Police Station"},"geometry":{"type":"Point","coordinates":[36.7060624,-1.3217727]},"id":"node/30088453"},{"type":"Feature","properties":{"@id":"node/30118813","amenity":"police","name":"Nairobi Area Traffic HQ","toilets:wheelchair":"no","wheelchair":"limited"},"geometry":{"type":"Point","coordinates":[36.8082543,-1.2971556]},"id":"node/30118813"},{"type":"Feature","properties":{"@id":"node/30215004","amenity":"police","name":"Parliament Police Station"},"geometry":{"type":"Point","coordinates":[36.8200501,-1.2914029]},"id":"node/30215004"},{"type":"Feature","properties":{"@id":"node/30498715","amenity":"police","created_by":"Potlatch 0.4c","name":"Muthurua Police Station"},"geometry":{"type":"Point","coordinates":[36.8356843,-1.288501]},"id":"node/30498715"},{"type":"Feature","properties":{"@id":"node/30694169","addr:city":"Nairobi","addr:street":"Jabavu Road","amenity":"police","name":"Kilimani Divisional Police Station"},"geometry":{"type":"Point","coordinates":[36.795069,-1.2917949]},"id":"node/30694169"},{"type":"Feature","properties":{"@id":"node/291685265","amenity":"police","name":"Muthaiga Police Station"},"geometry":{"type":"Point","coordinates":[36.8428534,-1.2598864]},"id":"node/291685265"},{"type":"Feature","properties":{"@id":"node/293340273","addr:city":"Nairobi","addr:street":"Langata Road","amenity":"police","name":"Langata Police Station"},"geometry":{"type":"Point","coordinates":[36.782038,-1.3318859]},"id":"node/293340273"},{"type":"Feature","properties":{"@id":"node/550105829","amenity":"police","name":"Soweto Police Station"},"geometry":{"type":"Point","coordinates":[36.9123201,-1.2868306]},"id":"node/550105829"},{"type":"Feature","properties":{"@id":"node/612932041","amenity":"police","name":"Spring Valley police station"},"geometry":{"type":"Point","coordinates":[36.7847727,-1.2497606]},"id":"node/612932041"},{"type":"Feature","properties":{"@id":"node/612947201","amenity":"police","name":"Wilson Airport Police Station"},"geometry":{"type":"Point","coordinates":[36.8154209,-1.3174179]},"id":"node/612947201"},{"type":"Feature","properties":{"@id":"node/612947215","amenity":"police","note":"Just a 'police post'."},"geometry":{"type":"Point","coordinates":[36.8252852,-1.3051769]},"id":"node/612947215"},{"type":"Feature","properties":{"@id":"node/643601214","amenity":"police","name":"Gigiri Police Station"},"geometry":{"type":"Point","coordinates":[36.8088637,-1.2362733]},"id":"node/643601214"},{"type":"Feature","properties":{"@id":"node/695644743","addr:housenumber":"Forest View Rd, Nairobi","amenity":"police","name":"Karen Plains Police Post"},"geometry":{"type":"Point","coordinates":[36.7296337,-1.3269256]},"id":"node/695644743"},{"type":"Feature","properties":{"@id":"node/713194109","amenity":"police","check_date":"2023-05-02","name":"Chief camp","security:chiefs_camp":"yes","security:description":"There are also some administration police located there."},"geometry":{"type":"Point","coordinates":[36.8051845,-1.3149065]},"id":"node/713194109"},{"type":"Feature","properties":{"@id":"node/714721606","addr:street":"Tembo Road","amenity":"police","name":"Hardy Police Station"},"geometry":{"type":"Point","coordinates":[36.7422898,-1.3651741]},"id":"node/714721606"},{"type":"Feature","properties":{"@id":"node/762025985","amenity":"police","name":"Nairobi Central Police Station"},"geometry":{"type":"Point","coordinates":[36.8195469,-1.2788832]},"id":"node/762025985"},{"type":"Feature","properties":{"@id":"node/824518746","addr:street":"Woodvale Close","amenity":"police","name":"Evergreen Police Post"},"geometry":{"type":"Point","coordinates":[36.8337249,-1.2234907]},"id":"node/824518746"},{"type":"Feature","properties":{"@id":"node/878845726","amenity":"police","name":"Chiefs Camp"},"geometry":{"type":"Point","coordinates":[36.8880251,-1.3256101]},"id":"node/878845726"},{"type":"Feature","properties":{"@id":"node/949597294","amenity":"police","name":"Mukuru Chief'S Camp","note":"Moved 300 meters south from source","office":"government","source_ref":"Mukuru on the move"},"geometry":{"type":"Point","coordinates":[36.8881497,-1.3259242]},"id":"node/949597294"},{"type":"Feature","properties":{"@id":"node/949597315","amenity":"police","name":"Imara Asst Chief'S Camp","note":"Moved 300 meters south from source","source_ref":"Mukuru on the move"},"geometry":{"type":"Point","coordinates":[36.8670674,-1.3164031]},"id":"node/949597315"},{"type":"Feature","properties":{"@id":"node/949597651","amenity":"police","name":"Njenga Police Post","note":"Moved 300 meters south from source","source_ref":"Mukuru on the move","type":"SECURITY OFFICE"},"geometry":{"type":"Point","coordinates":[36.8815374,-1.313296]},"id":"node/949597651"},{"type":"Feature","properties":{"@id":"node/949597875","amenity":"police","name":"Villa Franka Police Post","note":"Moved 300 meters south from source","source_ref":"Mukuru on the move","type":"POLICE POST"},"geometry":{"type":"Point","coordinates":[36.8866135,-1.3238584]},"id":"node/949597875"},{"type":"Feature","properties":{"@id":"node/949597979","amenity":"police","name":"Rueben Police Post","note":"Moved 300 meters south from source","office":"government","source_ref":"Mukuru on the move"},"geometry":{"type":"Point","coordinates":[36.8691797,-1.3160417]},"id":"node/949597979"},{"type":"Feature","properties":{"@id":"node/1038219159","amenity":"police","name":"Ruaraka Provincial Administration Chief's camp"},"geometry":{"type":"Point","coordinates":[36.8739138,-1.2502308]},"id":"node/1038219159"},{"type":"Feature","properties":{"@id":"node/1038219173","amenity":"police","name":"Mathare North Assistant chief's camp"},"geometry":{"type":"Point","coordinates":[36.8709161,-1.2511422]},"id":"node/1038219173"},{"type":"Feature","properties":{"@id":"node/1101737088","amenity":"police","name":"Huruma Police Post"},"geometry":{"type":"Point","coordinates":[36.8738182,-1.2612731]},"id":"node/1101737088"},{"type":"Feature","properties":{"@id":"node/1103092249","amenity":"police","name":"Administration Chief's Police Unit"},"geometry":{"type":"Point","coordinates":[36.8649531,-1.2624199]},"id":"node/1103092249"},{"type":"Feature","properties":{"@id":"node/1796786233","amenity":"police","check_date":"2023-05-12","condition":"fair","image":"https://kc.humanitarianresponse.info/attachment/original?media_file=mapkibera/attachments/1590481256307.jpg","name":"Ayany Police Post","operational_status":"operational","security:AP_post":"yes","security:description":"3"},"geometry":{"type":"Point","coordinates":[36.7758087,-1.3103038]},"id":"node/1796786233"},{"type":"Feature","properties":{"@id":"node/1999709933","amenity":"police","name":"chiefs camp (kwa reuben)"},"geometry":{"type":"Point","coordinates":[36.8671364,-1.316398]},"id":"node/1999709933"},{"type":"Feature","properties":{"@id":"node/2374943967","amenity":"police","name":"Mathare AP Camp/DO'S Office123 CDF"},"geometry":{"type":"Point","coordinates":[36.8653954,-1.2625881]},"id":"node/2374943967"},{"type":"Feature","properties":{"@id":"node/2374943968","UNESCO ARM":"SCIENCE","amenity":"police","contact:phone":"0738575922","contact_person":"Gerald Omoke","name":"Mathare AP Camp/DO'S Offices"},"geometry":{"type":"Point","coordinates":[36.8654015,-1.2625744]},"id":"node/2374943968"},{"type":"Feature","properties":{"@id":"node/2510990017","addr:city":"Nairobi","addr:postcode":"00100","addr:street":"Kiambu Road","alt_name":"DCI Headquarters","amenity":"police","name":"Kenya Police Directorate of Criminal Investigations Headquarters","operator":"KPDCI","website":"https://www.cid.go.ke/"},"geometry":{"type":"Point","coordinates":[36.8470733,-1.2499761]},"id":"node/2510990017"},{"type":"Feature","properties":{"@id":"node/2725057662","amenity":"police","name":"Soweto_east_police booth"},"geometry":{"type":"Point","coordinates":[36.7996408,-1.3152872]},"id":"node/2725057662"},{"type":"Feature","properties":{"@id":"node/3032456393","addr:city":"Buruburu","addr:street":"Mumias South Road","amenity":"police","name":"Buruburu Police Station","toilets:wheelchair":"no","wheelchair":"no"},"geometry":{"type":"Point","coordinates":[36.8783756,-1.2794691]},"id":"node/3032456393"},{"type":"Feature","properties":{"@id":"node/3505764062","amenity":"police","name":"Githurai Kimbo Police Station"},"geometry":{"type":"Point","coordinates":[36.9305307,-1.2161466]},"id":"node/3505764062"},{"type":"Feature","properties":{"@id":"node/3723143924","amenity":"police","name":"korogocho police post","name:it":"Korogocho Police Post"},"geometry":{"type":"Point","coordinates":[36.8913689,-1.2468034]},"id":"node/3723143924"},{"type":"Feature","properties":{"@id":"node/3723147502","amenity":"police","name":"proposed police post"},"geometry":{"type":"Point","coordinates":[36.8885702,-1.25441]},"id":"node/3723147502"},{"type":"Feature","properties":{"@id":"node/3738823768","amenity":"police","name":"Administration Camp"},"geometry":{"type":"Point","coordinates":[36.8325227,-1.3259291]},"id":"node/3738823768"},{"type":"Feature","properties":{"@id":"node/4582161391","addr:street":"Makina, round about","amenity":"police","check_date":"2023-04-15","email":"squaremasters@gmail.com","name":"Square Masters Entertainment","name:en":"Square Masters Entertainment","opening_hours":"24/7","phone":"0721246046"},"geometry":{"type":"Point","coordinates":[36.7873144,-1.3057606]},"id":"node/4582161391"},{"type":"Feature","properties":{"@id":"node/4586768490","amenity":"police","name":"Kasarani Police Station","name:en":"Kasarani Police Station"},"geometry":{"type":"Point","coordinates":[36.8942535,-1.2195566]},"id":"node/4586768490"},{"type":"Feature","properties":{"@id":"node/4965526566","amenity":"police","name":"NYS Community Police Post","operational_status":"operational","security:community_police_post":"yes"},"geometry":{"type":"Point","coordinates":[36.7958354,-1.3116978]},"id":"node/4965526566"},{"type":"Feature","properties":{"@id":"node/4965724937","amenity":"police","name":"Sarang'ombe AP's Post","operational_status":"operational","security:AP_post":"yes"},"geometry":{"type":"Point","coordinates":[36.7797717,-1.3133159]},"id":"node/4965724937"},{"type":"Feature","properties":{"@id":"node/4967525066","amenity":"police","condition":"good","image":"https://kc.humanitarianresponse.info/attachment/original?media_file=mapkibera/attachments/1590571886628.jpg","name":"NYS Community Police Post","operational_status":"operational","security:community_police_post":"yes"},"geometry":{"type":"Point","coordinates":[36.7764559,-1.3174325]},"id":"node/4967525066"},{"type":"Feature","properties":{"@id":"node/4967525067","amenity":"police","check_date":"2023-05-02","condition":"good","image":"https://kc.humanitarianresponse.info/attachment/original?media_file=mapkibera/attachments/1590558003883.jpg","name":"NYS Community Police Post","operational_status":"operational","security:community_police_post":"yes","security:description":"4"},"geometry":{"type":"Point","coordinates":[36.775478,-1.3158482]},"id":"node/4967525067"},{"type":"Feature","properties":{"@id":"node/4967641089","amenity":"police","check_date":"2023-04-15","condition":"good","image":"https://kc.humanitarianresponse.info/attachment/original?media_file=mapkibera/attachments/1590654079371.jpg","name":"NYS Community Police Post","operational_status":"non_operational","security:community_police_post":"yes"},"geometry":{"type":"Point","coordinates":[36.7794452,-1.3068428]},"id":"node/4967641089"},{"type":"Feature","properties":{"@id":"node/4967726214","amenity":"police","name":"Showground Police Station","security:AP_post":"yes","security:description":"5","security:gbv_support":"yes"},"geometry":{"type":"Point","coordinates":[36.7636451,-1.3076244]},"id":"node/4967726214"},{"type":"Feature","properties":{"@id":"node/4967726216","amenity":"police","check_date":"2023-04-12","name":"Jamuhuri Police Station","operational_status":"operational","security:AP_post":"yes","security:description":"5"},"geometry":{"type":"Point","coordinates":[36.7724554,-1.3069785]},"id":"node/4967726216"},{"type":"Feature","properties":{"@id":"node/4999977558","amenity":"police","name":"Uhuru Camp"},"geometry":{"type":"Point","coordinates":[36.8116386,-1.3130876]},"id":"node/4999977558"},{"type":"Feature","properties":{"@id":"node/5343359897","addr:city":"Nairobi","amenity":"police","name":"Thome Police Post"},"geometry":{"type":"Point","coordinates":[36.868819,-1.2104015]},"id":"node/5343359897"},{"type":"Feature","properties":{"@id":"node/5352933506","addr:housenumber":"Acacia Dr, Nairobi","amenity":"police","name":"Runda Police Station"},"geometry":{"type":"Point","coordinates":[36.8234467,-1.2222802]},"id":"node/5352933506"},{"type":"Feature","properties":{"@id":"node/5372339352","amenity":"police","check_date":"2023-05-12","name":"Nairobi Police Dog-Unit Headquarters","operator":"NPS"},"geometry":{"type":"Point","coordinates":[36.772601,-1.3207651]},"id":"node/5372339352"},{"type":"Feature","properties":{"@id":"node/5378545308","amenity":"police","name":"Capitol Hill police station"},"geometry":{"type":"Point","coordinates":[36.8126728,-1.2958293]},"id":"node/5378545308"},{"type":"Feature","properties":{"@id":"node/5383793330","amenity":"police","name":"Kenyatta Hospital Police Post"},"geometry":{"type":"Point","coordinates":[36.8061368,-1.3034883]},"id":"node/5383793330"},{"type":"Feature","properties":{"@id":"node/5482421934","addr:city":"Nairobi","addr:street":"Bondo Street","amenity":"police","name":"Shauri Moyo Police Station"},"geometry":{"type":"Point","coordinates":[36.8462133,-1.2904733]},"id":"node/5482421934"},{"type":"Feature","properties":{"@id":"node/5496066104","addr:city":"Nairobi","addr:street":"Jogoo Road","amenity":"police","name":"Makongeni Police Station"},"geometry":{"type":"Point","coordinates":[36.8508978,-1.2945615]},"id":"node/5496066104"},{"type":"Feature","properties":{"@id":"node/5496079319","addr:city":"Nairobi","addr:housenumber":"Eastliegh,","addr:street":"Eldoret Road","amenity":"police","name":"Kenya Police"},"geometry":{"type":"Point","coordinates":[36.8597983,-1.2844387]},"id":"node/5496079319"},{"type":"Feature","properties":{"@id":"node/5555074031","addr:city":"Nairobi","addr:housenumber":"Vigilance House,","addr:street":"Harambee Avenue","amenity":"police","name":"Kenya Police Headquarters"},"geometry":{"type":"Point","coordinates":[36.8234312,-1.289761]},"id":"node/5555074031"},{"type":"Feature","properties":{"@id":"node/5580872755","addr:city":"Nairobi","addr:street":"Kaptagat Road","amenity":"police","name":"Loresho Police Post"},"geometry":{"type":"Point","coordinates":[36.7536597,-1.2523621]},"id":"node/5580872755"},{"type":"Feature","properties":{"@id":"node/5704419902","amenity":"police","name":"AP's office"},"geometry":{"type":"Point","coordinates":[36.8743511,-1.3103768]},"id":"node/5704419902"},{"type":"Feature","properties":{"@id":"node/6207692016","addr:city":"Nairobi","addr:street":"Nairobi Park East  Gate Road","amenity":"police","name":"Mombasa Road Police Post"},"geometry":{"type":"Point","coordinates":[36.8659628,-1.3363293]},"id":"node/6207692016"},{"type":"Feature","properties":{"@id":"node/6210121719","addr:city":"Mlolongo","addr:street":"Mombasa Road","amenity":"police","name":"Weighbridge Traffic Police Station"},"geometry":{"type":"Point","coordinates":[36.9387257,-1.3900484]},"id":"node/6210121719"},{"type":"Feature","properties":{"@id":"node/6247215823","addr:city":"Nairobi","addr:postcode":"00100","addr:street":"Thika Road","amenity":"police","name":"Kenya Police Traffic Headqarters"},"geometry":{"type":"Point","coordinates":[36.8568454,-1.2559069]},"id":"node/6247215823"},{"type":"Feature","properties":{"@id":"node/6249063019","addr:city":"Nairobi","addr:street":"Kasarani Mwiki Road","amenity":"police","name":"Kasarani Traffic Unit"},"geometry":{"type":"Point","coordinates":[36.8929128,-1.2204025]},"id":"node/6249063019"},{"type":"Feature","properties":{"@id":"node/6259798895","addr:city":"Nairobi","addr:street":"Rd to Utawala Academy","amenity":"police","name":"Embakasi Police Station"},"geometry":{"type":"Point","coordinates":[36.9132836,-1.3096868]},"id":"node/6259798895"},{"type":"Feature","properties":{"@id":"node/6819685077","addr:city":"Nairobi","addr:street":"Lusaka Road","amenity":"police","name":"Industrial Area Police Station"},"geometry":{"type":"Point","coordinates":[36.8341787,-1.3005838]},"id":"node/6819685077"},{"type":"Feature","properties":{"@id":"node/6827320506","addr:city":"Nairobi","amenity":"police","name":"Ngomongo"},"geometry":{"type":"Point","coordinates":[36.890578,-1.234992]},"id":"node/6827320506"},{"type":"Feature","properties":{"@id":"node/6847249045","addr:city":"Githurai","addr:street":"Thika Road","amenity":"police","name":"Administration Police Camp"},"geometry":{"type":"Point","coordinates":[36.9049052,-1.2098616]},"id":"node/6847249045"},{"type":"Feature","properties":{"@id":"node/7288678594","addr:city":"Nairobi","addr:street":"Outer Ring Road","amenity":"police","name":"Kariobangi North Police Station"},"geometry":{"type":"Point","coordinates":[36.8810552,-1.2537421]},"id":"node/7288678594"},{"type":"Feature","properties":{"@id":"node/7846414732","addr:city":"Nairobi","addr:street":"Doonholm Road","amenity":"police","name":"Donholm Police Station"},"geometry":{"type":"Point","coordinates":[36.8883189,-1.3008841]},"id":"node/7846414732"},{"type":"Feature","properties":{"@id":"node/7934793775","amenity":"police","check_date":"2023-04-19","condition":"fair","image":"https://kc.humanitarianresponse.info/attachment/original?media_file=mapkibera/attachments/1590656334799.jpg","name":"Community Police Post"},"geometry":{"type":"Point","coordinates":[36.77867,-1.3098983]},"id":"node/7934793775"},{"type":"Feature","properties":{"@id":"node/7934793776","amenity":"police","condition":"dilapidated","image":"https://kc.humanitarianresponse.info/attachment/original?media_file=mapkibera/attachments/1590555537351.jpg","name":"Undugu Police Post"},"geometry":{"type":"Point","coordinates":[36.7995354,-1.3175761]},"id":"node/7934793776"},{"type":"Feature","properties":{"@id":"node/7934793777","amenity":"police","check_date":"2023-05-11","condition":"good","image":"https://kc.humanitarianresponse.info/attachment/original?media_file=mapkibera/attachments/1590484883961.jpg","name":"DC Police Post"},"geometry":{"type":"Point","coordinates":[36.787725,-1.3061833]},"id":"node/7934793777"},{"type":"Feature","properties":{"@id":"node/7942255717","amenity":"police","image":"https://kc.humanitarianresponse.info/attachment/original?media_file=mapkibera/attachments/1590416871821.jpg","name":"Mathare Sub County CIPU Headquarters"},"geometry":{"type":"Point","coordinates":[36.86443,-1.2624913]},"id":"node/7942255717"},{"type":"Feature","properties":{"@id":"node/8130407284","amenity":"police","name":"Tassia Police Patrol Base"},"geometry":{"type":"Point","coordinates":[36.9042595,-1.3030477]},"id":"node/8130407284"},{"type":"Feature","properties":{"@id":"node/8168609587","amenity":"police","check_date":"2023-05-02","condition":"fair","image":"https://kc.humanitarianresponse.info/attachment/original?media_file=mapkibera/attachments/1591168267803.jpg","is_in:village":"Kawangware Sokoni","name":"Kawangware Sokoni Police Post"},"geometry":{"type":"Point","coordinates":[36.7457559,-1.2880179]},"id":"node/8168609587"},{"type":"Feature","properties":{"@id":"node/8168609588","amenity":"police","check_date":"2023-05-02","condition":"fair","image":"https://kc.humanitarianresponse.info/attachment/original?media_file=mapkibera/attachments/1591167141158.jpg","is_in:village":"Gatina","name":"Gatina Police Station"},"geometry":{"type":"Point","coordinates":[36.762174,-1.2759735]},"id":"node/8168609588"},{"type":"Feature","properties":{"@id":"node/8295775017","amenity":"police","name":"No through road"},"geometry":{"type":"Point","coordinates":[36.9010435,-1.3273069]},"id":"node/8295775017"},{"type":"Feature","properties":{"@id":"node/8338714155","amenity":"police","name":"Ruai Police Station"},"geometry":{"type":"Point","coordinates":[36.9990749,-1.2751018]},"id":"node/8338714155"},{"type":"Feature","properties":{"@id":"node/8371880132","addr:city":"Nairobi","addr:street":"Masai Lodge Road","amenity":"police","name":"Ole kasasi Police Post"},"geometry":{"type":"Point","coordinates":[36.7826549,-1.3919328]},"id":"node/8371880132"},{"type":"Feature","properties":{"@id":"node/9004506168","addr:city":"Nairobi","addr:street":"Kasarani Mwiki Road","amenity":"police","name":"Mwiki Police Station"},"geometry":{"type":"Point","coordinates":[36.9361775,-1.2371215]},"id":"node/9004506168"},{"type":"Feature","properties":{"@id":"node/9020201620","addr:city":"Nairobi","addr:street":"John Osogo road","amenity":"police","name":"Dandora police station"},"geometry":{"type":"Point","coordinates":[36.8932694,-1.2551804]},"id":"node/9020201620"},{"type":"Feature","properties":{"@id":"node/10780953138","amenity":"police","check_date":"2023-03-16","name":"police headquarters"},"geometry":{"type":"Point","coordinates":[36.8242334,-1.2878866]},"id":"node/10780953138"},{"type":"Feature","properties":{"@id":"node/11082844674","amenity":"police","name":"Industrial Area police station"},"geometry":{"type":"Point","coordinates":[36.8334286,-1.2982537]},"id":"node/11082844674"}]}